{"type": "FeatureCollection", "features": [{"type": "Feature", "geometry": {"type": "Point", "coordinates": [78.18922212307692, 8.756450892307694]}, "properties": {"osm_type": "way", "osm_id": 114488438, "name": "", "industrial": "", "landuse": "", "power": "", "man_made": "storage_tank", "operator": ""}}, {"type": "Feature", "geometry": {"type": "Point", "coordinates": [78.18751803846155, 8.756394461538461]}, "properties": {"osm_type": "way", "osm_id": 114488440, "name": "", "industrial": "", "landuse": "", "power": "", "man_made": "storage_tank", "operator": ""}}, {"type": "Feature", "geometry": {"type": "Point", "coordinates": [78.18752915384614, 8.756863769230769]}, "properties": {"osm_type": "way", "osm_id": 114488441, "name": "", "industrial": "", "landuse": "", "power": "", "man_made": "storage_tank", "operator": ""}}, {"type": "Feature", "geometry": {"type": "Point", "coordinates": [78.19015113846154, 8.755907492307692]}, "properties": {"osm_type": "way", "osm_id": 114488443, "name": "", "industrial": "", "landuse": "", "power": "", "man_made": "storage_tank", "operator": ""}}, {"type": "Feature", "geometry": {"type": "Point", "coordinates": [78.18784293846156, 8.7575979]}, "properties": {"osm_type": "way", "osm_id": 114488444, "name": "", "industrial": "", "landuse": "", "power": "", "man_made": "storage_tank", "operator": ""}}, {"type": "Feature", "geometry": {"type": "Point", "coordinates": [78.18796789230768, 8.756619500000001]}, "properties": {"osm_type": "way", "osm_id": 114488445, "name": "", "industrial": "", "landuse": "", "power": "", "man_made": "storage_tank", "operator": ""}}, {"type": "Feature", "geometry": {"type": "Point", "coordinates": [78.18953035384615, 8.756030992307693]}, "properties": {"osm_type": "way", "osm_id": 114488446, "name": "", "industrial": "", "landuse": "", "power": "", "man_made": "storage_tank", "operator": ""}}, {"type": "Feature", "geometry": {"type": "Point", "coordinates": [78.1891638, 8.7560996]}, "properties": {"osm_type": "way", "osm_id": 114488447, "name": "", "industrial": "", "landuse": "", "power": "", "man_made": "storage_tank", "operator": ""}}, {"type": "Feature", "geometry": {"type": "Point", "coordinates": [78.18792345384614, 8.7561063]}, "properties": {"osm_type": "way", "osm_id": 114488448, "name": "", "industrial": "", "landuse": "", "power": "", "man_made": "storage_tank", "operator": ""}}, {"type": "Feature", "geometry": {"type": "Point", "coordinates": [78.1904398923077, 8.755863592307692]}, "properties": {"osm_type": "way", "osm_id": 114488449, "name": "", "industrial": "", "landuse": "", "power": "", "man_made": "storage_tank", "operator": ""}}, {"type": "Feature", "geometry": {"type": "Point", "coordinates": [78.18769020769231, 8.7572288]}, "properties": {"osm_type": "way", "osm_id": 114488450, "name": "", "industrial": "", "landuse": "", "power": "", "man_made": "storage_tank", "operator": ""}}, {"type": "Feature", "geometry": {"type": "Point", "coordinates": [78.18985123846153, 8.755973384615384]}, "properties": {"osm_type": "way", "osm_id": 114488451, "name": "", "industrial": "", "landuse": "", "power": "", "man_made": "storage_tank", "operator": ""}}, {"type": "Feature", "geometry": {"type": "Point", "coordinates": [78.09120400357143, 8.81741561785714]}, "properties": {"osm_type": "way", "osm_id": 385432377, "name": "", "industrial": "", "landuse": "industrial", "power": "plant", "man_made": "", "operator": ""}}, {"type": "Feature", "geometry": {"type": "Point", "coordinates": [78.10809494, 8.865685500000001]}, "properties": {"osm_type": "way", "osm_id": 385432381, "name": "Thoothukudi IBPGL", "industrial": "", "landuse": "", "power": "plant", "man_made": "", "operator": ""}}, {"type": "Feature", "geometry": {"type": "Point", "coordinates": [78.05457392857144, 8.885599657142858]}, "properties": {"osm_type": "way", "osm_id": 385432388, "name": "Thoothukudi IBTPL power station", "industrial": "", "landuse": "industrial", "power": "plant", "man_made": "", "operator": ""}}, {"type": "Feature", "geometry": {"type": "Point", "coordinates": [78.12891737619047, 8.697998685714285]}, "properties": {"osm_type": "way", "osm_id": 398674681, "name": "", "industrial": "", "landuse": "industrial", "power": "", "man_made": "", "operator": ""}}, {"type": "Feature", "geometry": {"type": "Point", "coordinates": [78.09483057567567, 8.594491345945945]}, "properties": {"osm_type": "way", "osm_id": 548907979, "name": "DCW", "industrial": "chemical", "landuse": "industrial", "power": "", "man_made": "", "operator": ""}}, {"type": "Feature", "geometry": {"type": "Point", "coordinates": [78.21125003076922, 8.749493615384615]}, "properties": {"osm_type": "way", "osm_id": 577750403, "name": "", "industrial": "port", "landuse": "industrial", "power": "", "man_made": "", "operator": ""}}, {"type": "Feature", "geometry": {"type": "Point", "coordinates": [78.1787971, 8.761859136000002]}, "properties": {"osm_type": "way", "osm_id": 592629497, "name": "", "industrial": "", "landuse": "", "power": "", "man_made": "storage_tank", "operator": ""}}, {"type": "Feature", "geometry": {"type": "Point", "coordinates": [78.17886683600001, 8.762260756]}, "properties": {"osm_type": "way", "osm_id": 592629498, "name": "", "industrial": "", "landuse": "", "power": "", "man_made": "storage_tank", "operator": ""}}, {"type": "Feature", "geometry": {"type": "Point", "coordinates": [78.17227616400002, 8.759660516]}, "properties": {"osm_type": "way", "osm_id": 592629507, "name": "", "industrial": "", "landuse": "", "power": "", "man_made": "storage_tank", "operator": ""}}, {"type": "Feature", "geometry": {"type": "Point", "coordinates": [78.172060252, 8.759698968000002]}, "properties": {"osm_type": "way", "osm_id": 592629508, "name": "", "industrial": "", "landuse": "", "power": "", "man_made": "storage_tank", "operator": ""}}, {"type": "Feature", "geometry": {"type": "Point", "coordinates": [78.19118912352941, 8.756964011764705]}, "properties": {"osm_type": "way", "osm_id": 592629549, "name": "", "industrial": "", "landuse": "", "power": "", "man_made": "storage_tank", "operator": ""}}, {"type": "Feature", "geometry": {"type": "Point", "coordinates": [78.1911623, 8.75676385882353]}, "properties": {"osm_type": "way", "osm_id": 592629550, "name": "", "industrial": "", "landuse": "", "power": "", "man_made": "storage_tank", "operator": ""}}, {"type": "Feature", "geometry": {"type": "Point", "coordinates": [78.19112427058823, 8.756535929411765]}, "properties": {"osm_type": "way", "osm_id": 592629551, "name": "", "industrial": "", "landuse": "", "power": "", "man_made": "storage_tank", "operator": ""}}, {"type": "Feature", "geometry": {"type": "Point", "coordinates": [78.18871346470587, 8.75672675882353]}, "properties": {"osm_type": "way", "osm_id": 592629552, "name": "", "industrial": "", "landuse": "", "power": "", "man_made": "storage_tank", "operator": ""}}, {"type": "Feature", "geometry": {"type": "Point", "coordinates": [78.18866248235292, 8.75644575882353]}, "properties": {"osm_type": "way", "osm_id": 592629553, "name": "", "industrial": "", "landuse": "", "power": "", "man_made": "storage_tank", "operator": ""}}, {"type": "Feature", "geometry": {"type": "Point", "coordinates": [78.18861676470588, 8.756171529411764]}, "properties": {"osm_type": "way", "osm_id": 592629554, "name": "", "industrial": "", "landuse": "", "power": "", "man_made": "storage_tank", "operator": ""}}, {"type": "Feature", "geometry": {"type": "Point", "coordinates": [78.19653003913042, 8.766746730434782]}, "properties": {"osm_type": "way", "osm_id": 592629580, "name": "", "industrial": "", "landuse": "", "power": "", "man_made": "storage_tank", "operator": ""}}, {"type": "Feature", "geometry": {"type": "Point", "coordinates": [78.19664269130435, 8.767272926086958]}, "properties": {"osm_type": "way", "osm_id": 592629581, "name": "", "industrial": "", "landuse": "", "power": "", "man_made": "storage_tank", "operator": ""}}, {"type": "Feature", "geometry": {"type": "Point", "coordinates": [78.19768962608696, 8.767134891304346]}, "properties": {"osm_type": "way", "osm_id": 592629582, "name": "", "industrial": "", "landuse": "", "power": "", "man_made": "storage_tank", "operator": ""}}, {"type": "Feature", "geometry": {"type": "Point", "coordinates": [78.19739832608695, 8.766493791304347]}, "properties": {"osm_type": "way", "osm_id": 592629583, "name": "", "industrial": "", "landuse": "", "power": "", "man_made": "storage_tank", "operator": ""}}, {"type": "Feature", "geometry": {"type": "Point", "coordinates": [78.07674102380952, 8.822152152380953]}, "properties": {"osm_type": "way", "osm_id": 657801518, "name": "", "industrial": "", "landuse": "industrial", "power": "", "man_made": "", "operator": ""}}, {"type": "Feature", "geometry": {"type": "Point", "coordinates": [78.0981431142857, 8.807658228571428]}, "properties": {"osm_type": "way", "osm_id": 661590301, "name": "", "industrial": "", "landuse": "industrial", "power": "", "man_made": "", "operator": ""}}, {"type": "Feature", "geometry": {"type": "Point", "coordinates": [78.07430246, 8.81764389]}, "properties": {"osm_type": "way", "osm_id": 661590303, "name": "", "industrial": "", "landuse": "industrial", "power": "", "man_made": "", "operator": ""}}, {"type": "Feature", "geometry": {"type": "Point", "coordinates": [78.07669652142859, 8.815875578571427]}, "properties": {"osm_type": "way", "osm_id": 661590305, "name": "", "industrial": "", "landuse": "industrial", "power": "", "man_made": "", "operator": ""}}, {"type": "Feature", "geometry": {"type": "Point", "coordinates": [78.16923425833333, 8.761193966666667]}, "properties": {"osm_type": "way", "osm_id": 662798206, "name": "NTPL Thermal Power Station", "industrial": "", "landuse": "industrial", "power": "plant", "man_made": "", "operator": ""}}, {"type": "Feature", "geometry": {"type": "Point", "coordinates": [78.17547944, 8.763179860000001]}, "properties": {"osm_type": "way", "osm_id": 662798207, "name": "Tuticorin Thermal Power Station", "industrial": "", "landuse": "industrial", "power": "plant", "man_made": "", "operator": ""}}, {"type": "Feature", "geometry": {"type": "Point", "coordinates": [78.13948498275862, 8.792029665517244]}, "properties": {"osm_type": "way", "osm_id": 740794217, "name": "", "industrial": "", "landuse": "", "power": "", "man_made": "storage_tank", "operator": ""}}, {"type": "Feature", "geometry": {"type": "Point", "coordinates": [78.15764255714285, 8.755511228571427]}, "properties": {"osm_type": "way", "osm_id": 822892679, "name": "SEPC", "industrial": "", "landuse": "industrial", "power": "plant", "man_made": "", "operator": "SEPC"}}, {"type": "Feature", "geometry": {"type": "Point", "coordinates": [78.15820320833332, 8.804662058333333]}, "properties": {"osm_type": "way", "osm_id": 823674453, "name": "", "industrial": "", "landuse": "industrial", "power": "", "man_made": "", "operator": ""}}, {"type": "Feature", "geometry": {"type": "Point", "coordinates": [78.15950899999999, 8.80580304]}, "properties": {"osm_type": "way", "osm_id": 823674454, "name": "", "industrial": "", "landuse": "industrial", "power": "", "man_made": "", "operator": ""}}, {"type": "Feature", "geometry": {"type": "Point", "coordinates": [78.03027374761905, 8.740437147619046]}, "properties": {"osm_type": "way", "osm_id": 823674462, "name": "", "industrial": "", "landuse": "industrial", "power": "", "man_made": "", "operator": ""}}, {"type": "Feature", "geometry": {"type": "Point", "coordinates": [78.13363652, 8.89374776]}, "properties": {"osm_type": "way", "osm_id": 906390049, "name": "", "industrial": "", "landuse": "industrial", "power": "", "man_made": "", "operator": ""}}, {"type": "Feature", "geometry": {"type": "Point", "coordinates": [78.197238625, 8.767365987500002]}, "properties": {"osm_type": "way", "osm_id": 906827207, "name": "", "industrial": "", "landuse": "", "power": "", "man_made": "works", "operator": ""}}, {"type": "Feature", "geometry": {"type": "Point", "coordinates": [78.19351082, 8.757700680000001]}, "properties": {"osm_type": "way", "osm_id": 906827213, "name": "", "industrial": "", "landuse": "", "power": "", "man_made": "works", "operator": ""}}, {"type": "Feature", "geometry": {"type": "Point", "coordinates": [78.18909108999999, 8.75624491]}, "properties": {"osm_type": "way", "osm_id": 906827214, "name": "", "industrial": "", "landuse": "", "power": "", "man_made": "works", "operator": ""}}, {"type": "Feature", "geometry": {"type": "Point", "coordinates": [78.13686148000002, 8.73689363111111]}, "properties": {"osm_type": "way", "osm_id": 906827216, "name": "", "industrial": "", "landuse": "", "power": "", "man_made": "works", "operator": ""}}, {"type": "Feature", "geometry": {"type": "Point", "coordinates": [78.1378746, 8.87431518]}, "properties": {"osm_type": "way", "osm_id": 906827217, "name": "", "industrial": "", "landuse": "industrial", "power": "", "man_made": "", "operator": ""}}, {"type": "Feature", "geometry": {"type": "Point", "coordinates": [78.10328391538461, 8.839155315384614]}, "properties": {"osm_type": "way", "osm_id": 906827218, "name": "", "industrial": "", "landuse": "industrial", "power": "", "man_made": "", "operator": ""}}, {"type": "Feature", "geometry": {"type": "Point", "coordinates": [78.1217271625, 8.8516773875]}, "properties": {"osm_type": "way", "osm_id": 906827219, "name": "", "industrial": "", "landuse": "industrial", "power": "", "man_made": "", "operator": ""}}, {"type": "Feature", "geometry": {"type": "Point", "coordinates": [78.05725935714285, 8.85624432857143]}, "properties": {"osm_type": "way", "osm_id": 906827220, "name": "", "industrial": "", "landuse": "industrial", "power": "", "man_made": "", "operator": ""}}, {"type": "Feature", "geometry": {"type": "Point", "coordinates": [78.05707699999999, 8.853188966666666]}, "properties": {"osm_type": "way", "osm_id": 906827221, "name": "", "industrial": "", "landuse": "industrial", "power": "", "man_made": "", "operator": ""}}, {"type": "Feature", "geometry": {"type": "Point", "coordinates": [78.09051855, 8.659586683333332]}, "properties": {"osm_type": "way", "osm_id": 906831348, "name": "", "industrial": "", "landuse": "industrial", "power": "", "man_made": "", "operator": ""}}, {"type": "Feature", "geometry": {"type": "Point", "coordinates": [78.09131435294115, 8.662339711764707]}, "properties": {"osm_type": "way", "osm_id": 906831349, "name": "", "industrial": "", "landuse": "industrial", "power": "", "man_made": "", "operator": ""}}, {"type": "Feature", "geometry": {"type": "Point", "coordinates": [78.09355078, 8.703760280000001]}, "properties": {"osm_type": "way", "osm_id": 906831350, "name": "", "industrial": "", "landuse": "industrial", "power": "", "man_made": "", "operator": ""}}, {"type": "Feature", "geometry": {"type": "Point", "coordinates": [78.10502297142855, 8.7227614]}, "properties": {"osm_type": "way", "osm_id": 906831351, "name": "", "industrial": "", "landuse": "industrial", "power": "", "man_made": "", "operator": ""}}, {"type": "Feature", "geometry": {"type": "Point", "coordinates": [78.10212118333334, 8.729260066666667]}, "properties": {"osm_type": "way", "osm_id": 906831352, "name": "", "industrial": "", "landuse": "industrial", "power": "", "man_made": "", "operator": ""}}, {"type": "Feature", "geometry": {"type": "Point", "coordinates": [78.14407301428571, 8.737318785714285]}, "properties": {"osm_type": "way", "osm_id": 906831356, "name": "", "industrial": "", "landuse": "", "power": "", "man_made": "works", "operator": ""}}, {"type": "Feature", "geometry": {"type": "Point", "coordinates": [78.14864961666667, 8.738530799999998]}, "properties": {"osm_type": "way", "osm_id": 906831358, "name": "", "industrial": "", "landuse": "", "power": "", "man_made": "works", "operator": ""}}, {"type": "Feature", "geometry": {"type": "Point", "coordinates": [78.10911536666666, 8.894548]}, "properties": {"osm_type": "way", "osm_id": 906837208, "name": "", "industrial": "", "landuse": "industrial", "power": "", "man_made": "", "operator": ""}}, {"type": "Feature", "geometry": {"type": "Point", "coordinates": [78.10857617333333, 8.882339300000002]}, "properties": {"osm_type": "way", "osm_id": 906837209, "name": "", "industrial": "", "landuse": "industrial", "power": "", "man_made": "", "operator": ""}}, {"type": "Feature", "geometry": {"type": "Point", "coordinates": [78.0644229, 8.887708891666668]}, "properties": {"osm_type": "way", "osm_id": 986411990, "name": "Arasadi", "industrial": "", "landuse": "industrial", "power": "plant", "man_made": "", "operator": ""}}, {"type": "Feature", "geometry": {"type": "Point", "coordinates": [77.95640234117646, 8.767448441176471]}, "properties": {"osm_type": "way", "osm_id": 986423924, "name": "", "industrial": "", "landuse": "industrial", "power": "plant", "man_made": "", "operator": ""}}, {"type": "Feature", "geometry": {"type": "Point", "coordinates": [78.08353862941176, 8.845028229411767]}, "properties": {"osm_type": "way", "osm_id": 1003158311, "name": "", "industrial": "", "landuse": "industrial", "power": "plant", "man_made": "", "operator": ""}}, {"type": "Feature", "geometry": {"type": "Point", "coordinates": [78.09619544782609, 8.800692343478264]}, "properties": {"osm_type": "way", "osm_id": 1073989739, "name": "", "industrial": "", "landuse": "industrial", "power": "", "man_made": "", "operator": ""}}, {"type": "Feature", "geometry": {"type": "Point", "coordinates": [78.07995952962963, 8.802512792592593]}, "properties": {"osm_type": "way", "osm_id": 1073989741, "name": "", "industrial": "", "landuse": "industrial", "power": "", "man_made": "", "operator": ""}}, {"type": "Feature", "geometry": {"type": "Point", "coordinates": [78.1242396764706, 8.778350994117647]}, "properties": {"osm_type": "way", "osm_id": 1222785220, "name": "", "industrial": "depot", "landuse": "industrial", "power": "", "man_made": "", "operator": ""}}, {"type": "Feature", "geometry": {"type": "Point", "coordinates": [78.10846566666666, 8.772134012121212]}, "properties": {"osm_type": "way", "osm_id": 1235088522, "name": "", "industrial": "", "landuse": "industrial", "power": "", "man_made": "", "operator": ""}}, {"type": "Feature", "geometry": {"type": "Point", "coordinates": [77.94251261904762, 8.661406333333334]}, "properties": {"osm_type": "way", "osm_id": 1268305324, "name": "", "industrial": "", "landuse": "industrial", "power": "plant", "man_made": "", "operator": ""}}, {"type": "Feature", "geometry": {"type": "Point", "coordinates": [78.17800819230769, 8.749508684615385]}, "properties": {"osm_type": "way", "osm_id": 1384361544, "name": "", "industrial": "", "landuse": "", "power": "plant", "man_made": "", "operator": ""}}, {"type": "Feature", "geometry": {"type": "Point", "coordinates": [78.08176869411763, 8.851988925000004]}, "properties": {"osm_type": "way", "osm_id": 1431653737, "name": "Vinfast Auto", "industrial": "", "landuse": "industrial", "power": "", "man_made": "", "operator": ""}}, {"type": "Feature", "geometry": {"type": "Point", "coordinates": [78.0366347557377, 8.850357501639344]}, "properties": {"osm_type": "way", "osm_id": 1432129271, "name": "", "industrial": "", "landuse": "", "power": "plant", "man_made": "", "operator": ""}}, {"type": "Feature", "geometry": {"type": "Point", "coordinates": [78.0332790382979, 8.837031261702128]}, "properties": {"osm_type": "way", "osm_id": 1432129272, "name": "", "industrial": "", "landuse": "", "power": "plant", "man_made": "", "operator": ""}}, {"type": "Feature", "geometry": {"type": "Point", "coordinates": [78.02724822, 8.727955900000001]}, "properties": {"osm_type": "way", "osm_id": 1442917861, "name": "", "industrial": "", "landuse": "", "power": "plant", "man_made": "", "operator": ""}}, {"type": "Feature", "geometry": {"type": "Point", "coordinates": [77.90702414, 8.58117631]}, "properties": {"osm_type": "way", "osm_id": 1453652971, "name": "", "industrial": "", "landuse": "", "power": "plant", "man_made": "", "operator": ""}}, {"type": "Feature", "geometry": {"type": "Point", "coordinates": [77.95223592727272, 8.551026709090909]}, "properties": {"osm_type": "way", "osm_id": 1468877017, "name": "", "industrial": "", "landuse": "", "power": "plant", "man_made": "", "operator": ""}}, {"type": "Feature", "geometry": {"type": "Point", "coordinates": [78.11823784285714, 8.513637671428572]}, "properties": {"osm_type": "way", "osm_id": 1504375937, "name": "", "industrial": "", "landuse": "industrial", "power": "", "man_made": "", "operator": ""}}, {"type": "Feature", "geometry": {"type": "Point", "coordinates": [78.02037476000001, 8.893579200000001]}, "properties": {"osm_type": "way", "osm_id": 1516453098, "name": "", "industrial": "", "landuse": "industrial", "power": "", "man_made": "", "operator": ""}}, {"type": "Feature", "geometry": {"type": "Point", "coordinates": [78.02106463999999, 8.89804126]}, "properties": {"osm_type": "way", "osm_id": 1516453099, "name": "", "industrial": "", "landuse": "industrial", "power": "", "man_made": "", "operator": ""}}, {"type": "Feature", "geometry": {"type": "Point", "coordinates": [78.07137962, 8.8475645]}, "properties": {"osm_type": "way", "osm_id": 1516453102, "name": "", "industrial": "", "landuse": "industrial", "power": "", "man_made": "", "operator": ""}}, {"type": "Feature", "geometry": {"type": "Point", "coordinates": [NaN, NaN]}, "properties": {"osm_type": "relation", "osm_id": 9212425, "name": "", "industrial": "", "landuse": "industrial", "power": "", "man_made": "", "operator": ""}}, {"type": "Feature", "geometry": {"type": "Point", "coordinates": [NaN, NaN]}, "properties": {"osm_type": "relation", "osm_id": 11278577, "name": "", "industrial": "port", "landuse": "industrial", "power": "", "man_made": "", "operator": ""}}, {"type": "Feature", "geometry": {"type": "Point", "coordinates": [NaN, NaN]}, "properties": {"osm_type": "relation", "osm_id": 11278578, "name": "Thoothukudi Fishing Harbour", "industrial": "port", "landuse": "industrial", "power": "", "man_made": "", "operator": ""}}, {"type": "Feature", "geometry": {"type": "Point", "coordinates": [NaN, NaN]}, "properties": {"osm_type": "relation", "osm_id": 16765870, "name": "", "industrial": "", "landuse": "", "power": "plant", "man_made": "", "operator": ""}}, {"type": "Feature", "geometry": {"type": "Point", "coordinates": [NaN, NaN]}, "properties": {"osm_type": "relation", "osm_id": 17348197, "name": "SPIC Thoothukudi Floating Solar PV Park", "industrial": "", "landuse": "", "power": "plant", "man_made": "", "operator": ""}}, {"type": "Feature", "geometry": {"type": "Point", "coordinates": [NaN, NaN]}, "properties": {"osm_type": "relation", "osm_id": 17415628, "name": "", "industrial": "", "landuse": "", "power": "plant", "man_made": "", "operator": ""}}, {"type": "Feature", "geometry": {"type": "Point", "coordinates": [77.94137698571429, 8.658283471428572]}, "properties": {"osm_type": "way", "osm_id": 1268305323, "name": "", "industrial": "", "landuse": "", "power": "", "man_made": "", "operator": ""}}, {"type": "Feature", "geometry": {"type": "Point", "coordinates": [77.94244371764707, 8.663728194117647]}, "properties": {"osm_type": "way", "osm_id": 1268305313, "name": "", "industrial": "", "landuse": "", "power": "", "man_made": "", "operator": ""}}, {"type": "Feature", "geometry": {"type": "Point", "coordinates": [77.94198809999999, 8.662809239999998]}, "properties": {"osm_type": "way", "osm_id": 1268305319, "name": "", "industrial": "", "landuse": "", "power": "", "man_made": "", "operator": ""}}, {"type": "Feature", "geometry": {"type": "Point", "coordinates": [77.94250035333333, 8.661145393333332]}, "properties": {"osm_type": "way", "osm_id": 1268305320, "name": "", "industrial": "", "landuse": "", "power": "", "man_made": "", "operator": ""}}, {"type": "Feature", "geometry": {"type": "Point", "coordinates": [77.94234094666666, 8.659837526666669]}, "properties": {"osm_type": "way", "osm_id": 1268305321, "name": "", "industrial": "", "landuse": "", "power": "", "man_made": "", "operator": ""}}, {"type": "Feature", "geometry": {"type": "Point", "coordinates": [77.94224568235298, 8.65879758235294]}, "properties": {"osm_type": "way", "osm_id": 1268305322, "name": "", "industrial": "", "landuse": "", "power": "", "man_made": "", "operator": ""}}, {"type": "Feature", "geometry": {"type": "Point", "coordinates": [77.94400292, 8.66345132]}, "properties": {"osm_type": "way", "osm_id": 1268305314, "name": "", "industrial": "", "landuse": "", "power": "", "man_made": "", "operator": ""}}, {"type": "Feature", "geometry": {"type": "Point", "coordinates": [77.94642781578949, 8.661612889473684]}, "properties": {"osm_type": "way", "osm_id": 1268305315, "name": "", "industrial": "", "landuse": "", "power": "", "man_made": "", "operator": ""}}, {"type": "Feature", "geometry": {"type": "Point", "coordinates": [77.94567344000001, 8.662063040000001]}, "properties": {"osm_type": "way", "osm_id": 1268305316, "name": "", "industrial": "", "landuse": "", "power": "", "man_made": "", "operator": ""}}, {"type": "Feature", "geometry": {"type": "Point", "coordinates": [77.94487391219513, 8.662744134146342]}, "properties": {"osm_type": "way", "osm_id": 1268305317, "name": "", "industrial": "", "landuse": "", "power": "", "man_made": "", "operator": ""}}, {"type": "Feature", "geometry": {"type": "Point", "coordinates": [77.94345754444446, 8.662311644444445]}, "properties": {"osm_type": "way", "osm_id": 1268305318, "name": "", "industrial": "", "landuse": "", "power": "", "man_made": "", "operator": ""}}, {"type": "Feature", "geometry": {"type": "Point", "coordinates": [77.9773189, 8.76347984]}, "properties": {"osm_type": "way", "osm_id": 1227454933, "name": "", "industrial": "", "landuse": "", "power": "", "man_made": "", "operator": ""}}, {"type": "Feature", "geometry": {"type": "Point", "coordinates": [77.98045364193548, 8.767048441935483]}, "properties": {"osm_type": "way", "osm_id": 1227454932, "name": "", "industrial": "", "landuse": "", "power": "", "man_made": "", "operator": ""}}, {"type": "Feature", "geometry": {"type": "Point", "coordinates": [78.12769523846154, 8.733073976923079]}, "properties": {"osm_type": "way", "osm_id": 1262795952, "name": "", "industrial": "", "landuse": "", "power": "", "man_made": "", "operator": ""}}, {"type": "Feature", "geometry": {"type": "Point", "coordinates": [78.1840589666667, 8.767043751282053]}, "properties": {"osm_type": "way", "osm_id": 97686661, "name": "", "industrial": "", "landuse": "", "power": "", "man_made": "", "operator": ""}}, {"type": "Feature", "geometry": {"type": "Point", "coordinates": [78.13156122000001, 8.736402960000001]}, "properties": {"osm_type": "way", "osm_id": 1262795953, "name": "", "industrial": "", "landuse": "", "power": "", "man_made": "", "operator": ""}}, {"type": "Feature", "geometry": {"type": "Point", "coordinates": [78.1681028125, 8.7610393625]}, "properties": {"osm_type": "way", "osm_id": 662798205, "name": "", "industrial": "", "landuse": "", "power": "", "man_made": "", "operator": ""}}, {"type": "Feature", "geometry": {"type": "Point", "coordinates": [78.19227570869566, 8.75553063478261]}, "properties": {"osm_type": "way", "osm_id": 906827212, "name": "", "industrial": "", "landuse": "", "power": "", "man_made": "", "operator": ""}}, {"type": "Feature", "geometry": {"type": "Point", "coordinates": [78.15855969622642, 8.798001816981134]}, "properties": {"osm_type": "way", "osm_id": 97686734, "name": "", "industrial": "", "landuse": "", "power": "", "man_made": "", "operator": ""}}, {"type": "Feature", "geometry": {"type": "Point", "coordinates": [78.15923528235294, 8.793472270588236]}, "properties": {"osm_type": "way", "osm_id": 823674419, "name": "", "industrial": "", "landuse": "", "power": "", "man_made": "", "operator": ""}}, {"type": "Feature", "geometry": {"type": "Point", "coordinates": [78.1587989, 8.800609878571429]}, "properties": {"osm_type": "way", "osm_id": 823674422, "name": "", "industrial": "", "landuse": "", "power": "", "man_made": "", "operator": ""}}, {"type": "Feature", "geometry": {"type": "Point", "coordinates": [78.16136176551724, 8.795841037931034]}, "properties": {"osm_type": "way", "osm_id": 823674417, "name": "", "industrial": "", "landuse": "", "power": "", "man_made": "", "operator": ""}}, {"type": "Feature", "geometry": {"type": "Point", "coordinates": [78.1619833, 8.792375450000002]}, "properties": {"osm_type": "way", "osm_id": 823674418, "name": "", "industrial": "", "landuse": "", "power": "", "man_made": "", "operator": ""}}, {"type": "Feature", "geometry": {"type": "Point", "coordinates": [78.16228821500002, 8.803231879999998]}, "properties": {"osm_type": "way", "osm_id": 624646806, "name": "", "industrial": "", "landuse": "", "power": "", "man_made": "", "operator": ""}}, {"type": "Feature", "geometry": {"type": "Point", "coordinates": [78.159856175, 8.8021313]}, "properties": {"osm_type": "way", "osm_id": 624646808, "name": "", "industrial": "", "landuse": "", "power": "", "man_made": "", "operator": ""}}]}